start=new Date('2022-03-19T00:00:00.000Z').valueOf();
sats=[{"DECAY_DATE":null,"MEAN_MOTION_DDOT":"0.0000000000000","TLE_LINE1":"1 50178U 21125Y   22077.91667824 -.00665271  00000-0 -37014-1 0  9998","MEAN_ANOMALY":"117.7620","MEAN_MOTION_DOT":"-0.00665271","CENTER_NAME":"EARTH","APOAPSIS":"520.511","REF_FRAME":"TEME","TIME_SYSTEM":"UTC","LAUNCH_DATE":"2021-12-18","EPHEMERIS_TYPE":"0","EPOCH":"2022-03-18T22:00:00.999936","ECCENTRICITY":"0.00017190","PERIOD":"95.015","MEAN_MOTION":"15.15545480","TLE_LINE2":"2 50178  53.2175 286.5197 0001719  51.3331 117.7620 15.15545480 16940","OBJECT_ID":"2021-125Y","PERIAPSIS":"518.139","INCLINATION":"53.2175","FILE":"3364698","GP_ID":"199081061","OBJECT_TYPE":"PAYLOAD","REV_AT_EPOCH":"1694","MEAN_ELEMENT_THEORY":"SGP4","SEMIMAJOR_AXIS":"6897.460","OBJECT_NAME":"STARLINK-3284","CLASSIFICATION_TYPE":"U","RA_OF_ASC_NODE":"286.5197","ARG_OF_PERICENTER":"51.3331","COUNTRY_CODE":"US","BSTAR":"-0.03701400000000","SITE":"AFWTR","RCS_SIZE":"LARGE","NORAD_CAT_ID":"50178","ELEMENT_SET_NO":"999"},{"NORAD_CAT_ID":"50179","ELEMENT_SET_NO":"999","RCS_SIZE":"LARGE","SITE":"AFWTR","BSTAR":"-0.03585400000000","COUNTRY_CODE":"US","ARG_OF_PERICENTER":"44.3958","RA_OF_ASC_NODE":"286.5261","CLASSIFICATION_TYPE":"U","OBJECT_NAME":"STARLINK-3283","SEMIMAJOR_AXIS":"6894.008","MEAN_ELEMENT_THEORY":"SGP4","REV_AT_EPOCH":"370","OBJECT_TYPE":"PAYLOAD","FILE":"3364757","GP_ID":"199105434","PERIAPSIS":"514.695","OBJECT_ID":"2021-125Z","INCLINATION":"53.2174","TLE_LINE2":"2 50179  53.2174 286.5261 0001709  44.3958 283.4021 15.16683848  3706","MEAN_MOTION":"15.16683848","PERIOD":"94.944","ECCENTRICITY":"0.00017090","EPOCH":"2022-03-18T22:00:00.999936","EPHEMERIS_TYPE":"0","LAUNCH_DATE":"2021-12-18","TIME_SYSTEM":"UTC","REF_FRAME":"TEME","APOAPSIS":"517.051","CENTER_NAME":"EARTH","MEAN_MOTION_DOT":"-0.00665735","MEAN_ANOMALY":"283.4021","TLE_LINE1":"1 50179U 21125Z   22077.91667824 -.00665735  00000-0 -35854-1 0  9994","MEAN_MOTION_DDOT":"0.0000000000000","DECAY_DATE":null},{"TIME_SYSTEM":"UTC","APOAPSIS":"515.820","REF_FRAME":"TEME","EPHEMERIS_TYPE":"0","ECCENTRICITY":"0.00019520","EPOCH":"2022-03-18T22:00:00.999936","LAUNCH_DATE":"2021-12-18","MEAN_MOTION_DOT":"-0.00668104","CENTER_NAME":"EARTH","TLE_LINE1":"1 50180U 21125AA  22077.91667824 -.00668104  00000-0 -35514-1 0  9992","MEAN_ANOMALY":"4.7491","MEAN_MOTION_DDOT":"0.0000000000000","DECAY_DATE":null,"RCS_SIZE":"LARGE","NORAD_CAT_ID":"50180","ELEMENT_SET_NO":"999","COUNTRY_CODE":"US","CLASSIFICATION_TYPE":"U","RA_OF_ASC_NODE":"286.5251","OBJECT_NAME":"STARLINK-3265","ARG_OF_PERICENTER":"33.4842","SITE":"AFWTR","BSTAR":"-0.03551400000000","REV_AT_EPOCH":"370","MEAN_ELEMENT_THEORY":"SGP4","GP_ID":"199105685","FILE":"3364757","OBJECT_TYPE":"PAYLOAD","SEMIMAJOR_AXIS":"6892.609","PERIOD":"94.915","TLE_LINE2":"2 50180  53.2174 286.5251 0001952  33.4842   4.7491 15.17145618  3702","PERIAPSIS":"513.129","INCLINATION":"53.2174","OBJECT_ID":"2021-125AA","MEAN_MOTION":"15.17145618"},{"PERIOD":"94.901","MEAN_MOTION":"15.17376083","TLE_LINE2":"2 50181  53.2175 286.5243 0001905  35.9913  37.2555 15.17376083  3691","OBJECT_ID":"2021-125AB","PERIAPSIS":"512.463","INCLINATION":"53.2175","FILE":"3364757","GP_ID":"199106423","OBJECT_TYPE":"PAYLOAD","REV_AT_EPOCH":"369","MEAN_ELEMENT_THEORY":"SGP4","SEMIMAJOR_AXIS":"6891.911","CLASSIFICATION_TYPE":"U","RA_OF_ASC_NODE":"286.5243","OBJECT_NAME":"STARLINK-3285","ARG_OF_PERICENTER":"35.9913","COUNTRY_CODE":"US","BSTAR":"-0.03530000000000","SITE":"AFWTR","RCS_SIZE":"LARGE","NORAD_CAT_ID":"50181","ELEMENT_SET_NO":"999","DECAY_DATE":null,"MEAN_MOTION_DDOT":"0.0000000000000","TLE_LINE1":"1 50181U 21125AB  22077.91667824 -.00668473  00000-0 -35300-1 0  9995","MEAN_ANOMALY":"37.2555","MEAN_MOTION_DOT":"-0.00668473","CENTER_NAME":"EARTH","APOAPSIS":"515.089","REF_FRAME":"TEME","TIME_SYSTEM":"UTC","LAUNCH_DATE":"2021-12-18","EPHEMERIS_TYPE":"0","EPOCH":"2022-03-18T22:00:00.999936","ECCENTRICITY":"0.00019050"},{"RCS_SIZE":"LARGE","ELEMENT_SET_NO":"999","NORAD_CAT_ID":"50182","ARG_OF_PERICENTER":"40.7504","RA_OF_ASC_NODE":"286.5230","CLASSIFICATION_TYPE":"U","OBJECT_NAME":"STARLINK-3277","COUNTRY_CODE":"US","BSTAR":"-0.03503000000000","SITE":"AFWTR","OBJECT_TYPE":"PAYLOAD","GP_ID":"199104685","FILE":"3364757","REV_AT_EPOCH":"370","MEAN_ELEMENT_THEORY":"SGP4","SEMIMAJOR_AXIS":"6891.215","PERIOD":"94.886","MEAN_MOTION":"15.17606012","PERIAPSIS":"511.816","OBJECT_ID":"2021-125AC","INCLINATION":"53.2176","TLE_LINE2":"2 50182  53.2176 286.5230 0001835  40.7504  67.3738 15.17606012  3708","REF_FRAME":"TEME","APOAPSIS":"514.345","TIME_SYSTEM":"UTC","LAUNCH_DATE":"2021-12-18","EPOCH":"2022-03-18T22:00:00.999936","ECCENTRICITY":"0.00018350","EPHEMERIS_TYPE":"0","MEAN_MOTION_DOT":"-0.00667811","CENTER_NAME":"EARTH","MEAN_MOTION_DDOT":"0.0000000000000","MEAN_ANOMALY":"67.3738","TLE_LINE1":"1 50182U 21125AC  22077.91667824 -.00667811  00000-0 -35030-1 0  9991","DECAY_DATE":null},{"RCS_SIZE":"LARGE","ELEMENT_SET_NO":"999","NORAD_CAT_ID":"50183","ARG_OF_PERICENTER":"38.5631","CLASSIFICATION_TYPE":"U","RA_OF_ASC_NODE":"286.5237","OBJECT_NAME":"STARLINK-3281","COUNTRY_CODE":"US","BSTAR":"-0.03517600000000","SITE":"AFWTR","OBJECT_TYPE":"PAYLOAD","GP_ID":"199104935","FILE":"3364757","REV_AT_EPOCH":"370","MEAN_ELEMENT_THEORY":"SGP4","SEMIMAJOR_AXIS":"6891.563","PERIOD":"94.893","MEAN_MOTION":"15.17491152","PERIAPSIS":"512.145","INCLINATION":"53.2176","OBJECT_ID":"2021-125AD","TLE_LINE2":"2 50183  53.2176 286.5237 0001862  38.5631  52.1394 15.17491152  3709","REF_FRAME":"TEME","APOAPSIS":"514.711","TIME_SYSTEM":"UTC","LAUNCH_DATE":"2021-12-18","ECCENTRICITY":"0.00018620","EPOCH":"2022-03-18T22:00:00.999936","EPHEMERIS_TYPE":"0","MEAN_MOTION_DOT":"-0.00668343","CENTER_NAME":"EARTH","MEAN_MOTION_DDOT":"0.0000000000000","TLE_LINE1":"1 50183U 21125AD  22077.91667824 -.00668343  00000-0 -35176-1 0  9994","MEAN_ANOMALY":"52.1394","DECAY_DATE":null},{"MEAN_MOTION":"15.17260887","TLE_LINE2":"2 50185  53.2175 286.5247 0001827  38.0236  17.7335 15.17260887  3709","OBJECT_ID":"2021-125AF","PERIAPSIS":"512.866","INCLINATION":"53.2175","PERIOD":"94.908","SEMIMAJOR_AXIS":"6892.260","GP_ID":"199106185","FILE":"3364757","OBJECT_TYPE":"PAYLOAD","MEAN_ELEMENT_THEORY":"SGP4","REV_AT_EPOCH":"370","BSTAR":"-0.03541000000000","SITE":"AFWTR","CLASSIFICATION_TYPE":"U","OBJECT_NAME":"STARLINK-3279","RA_OF_ASC_NODE":"286.5247","ARG_OF_PERICENTER":"38.0236","COUNTRY_CODE":"US","NORAD_CAT_ID":"50185","ELEMENT_SET_NO":"999","RCS_SIZE":"LARGE","DECAY_DATE":null,"MEAN_MOTION_DDOT":"0.0000000000000","TLE_LINE1":"1 50185U 21125AF  22077.91667824 -.00668334  00000-0 -35410-1 0  9997","MEAN_ANOMALY":"17.7335","CENTER_NAME":"EARTH","MEAN_MOTION_DOT":"-0.00668334","LAUNCH_DATE":"2021-12-18","EPHEMERIS_TYPE":"0","EPOCH":"2022-03-18T22:00:00.999936","ECCENTRICITY":"0.00018270","APOAPSIS":"515.384","REF_FRAME":"TEME","TIME_SYSTEM":"UTC"},{"TLE_LINE1":"1 50186U 21125AG  22077.91667824 -.00004630  00000-0 -27295-3 0  9995","MEAN_ANOMALY":"28.1428","MEAN_MOTION_DDOT":"0.0000000000000","DECAY_DATE":null,"EPHEMERIS_TYPE":"0","ECCENTRICITY":"0.00019930","EPOCH":"2022-03-18T22:00:00.999936","LAUNCH_DATE":"2021-12-18","TIME_SYSTEM":"UTC","REF_FRAME":"TEME","APOAPSIS":"541.124","CENTER_NAME":"EARTH","MEAN_MOTION_DOT":"-0.00004630","SEMIMAJOR_AXIS":"6917.881","MEAN_ELEMENT_THEORY":"SGP4","REV_AT_EPOCH":"1681","GP_ID":"199081604","FILE":"3364700","OBJECT_TYPE":"PAYLOAD","TLE_LINE2":"2 50186  53.2160 296.3719 0001993  43.9662  28.1428 15.08839954 16811","OBJECT_ID":"2021-125AG","PERIAPSIS":"538.367","INCLINATION":"53.2160","MEAN_MOTION":"15.08839954","PERIOD":"95.438","NORAD_CAT_ID":"50186","ELEMENT_SET_NO":"999","RCS_SIZE":"LARGE","SITE":"AFWTR","BSTAR":"-0.00027295000000","COUNTRY_CODE":"US","CLASSIFICATION_TYPE":"U","RA_OF_ASC_NODE":"296.3719","OBJECT_NAME":"STARLINK-3274","ARG_OF_PERICENTER":"43.9662"},{"PERIOD":"93.092","MEAN_MOTION":"15.46854372","TLE_LINE2":"2 50187  53.2174 279.8205 0001351  50.6111 329.2394 15.46854372  3754","OBJECT_ID":"2021-125AH","PERIAPSIS":"425.018","INCLINATION":"53.2174","GP_ID":"199105185","FILE":"3364757","OBJECT_TYPE":"PAYLOAD","MEAN_ELEMENT_THEORY":"SGP4","REV_AT_EPOCH":"375","SEMIMAJOR_AXIS":"6804.072","CLASSIFICATION_TYPE":"U","RA_OF_ASC_NODE":"279.8205","OBJECT_NAME":"STARLINK-3272","ARG_OF_PERICENTER":"50.6111","COUNTRY_CODE":"US","BSTAR":"-0.01531900000000","SITE":"AFWTR","RCS_SIZE":"LARGE","ELEMENT_SET_NO":"999","NORAD_CAT_ID":"50187","DECAY_DATE":null,"MEAN_MOTION_DDOT":"0.0000000000000","TLE_LINE1":"1 50187U 21125AH  22077.91667824 -.00723521  00000-0 -15319-1 0  9995","MEAN_ANOMALY":"329.2394","MEAN_MOTION_DOT":"-0.00723521","CENTER_NAME":"EARTH","REF_FRAME":"TEME","APOAPSIS":"426.856","TIME_SYSTEM":"UTC","LAUNCH_DATE":"2021-12-18","EPHEMERIS_TYPE":"0","EPOCH":"2022-03-18T22:00:00.999936","ECCENTRICITY":"0.00013510"},{"CENTER_NAME":"EARTH","MEAN_MOTION_DOT":"-0.00723470","EPHEMERIS_TYPE":"0","ECCENTRICITY":"0.00013690","EPOCH":"2022-03-18T22:00:00.999936","LAUNCH_DATE":"2021-12-18","TIME_SYSTEM":"UTC","REF_FRAME":"TEME","APOAPSIS":"427.238","DECAY_DATE":null,"MEAN_ANOMALY":"320.1342","TLE_LINE1":"1 50188U 21125AJ  22077.91667824 -.00723470  00000-0 -15385-1 0  9992","MEAN_MOTION_DDOT":"0.0000000000000","SITE":"AFWTR","BSTAR":"-0.01538500000000","COUNTRY_CODE":"US","CLASSIFICATION_TYPE":"U","RA_OF_ASC_NODE":"279.8211","OBJECT_NAME":"STARLINK-3275","ARG_OF_PERICENTER":"50.9557","NORAD_CAT_ID":"50188","ELEMENT_SET_NO":"999","RCS_SIZE":"LARGE","TLE_LINE2":"2 50188  53.2174 279.8211 0001369  50.9557 320.1342 15.46728480  3751","PERIAPSIS":"425.374","OBJECT_ID":"2021-125AJ","INCLINATION":"53.2174","MEAN_MOTION":"15.46728480","PERIOD":"93.100","SEMIMAJOR_AXIS":"6804.441","MEAN_ELEMENT_THEORY":"SGP4","REV_AT_EPOCH":"375","GP_ID":"199105435","FILE":"3364757","OBJECT_TYPE":"PAYLOAD"}];
